*******************************************************************************
JPL/HORIZONS                419 Aurelia (A896 RF)          2020-Jun-22 09:00:01
Rec #:     419 (+COV) Soln.date: 2020-May-20_01:05:23   # obs: 3315 (1899-2020)
 
IAU76/J2000 helio. ecliptic osc. elements (au, days, deg., period=Julian yrs):
 
  EPOCH=  2454665.5 ! 2008-Jul-18.00 (TDB)         Residual RMS= .28879
   EC= .25285031508011     QR= 1.938962170112545   TP= 2454811.8510696772
   OM= 229.3430360926044   W=  44.68606100952064   IN= 3.925062460341294
   A= 2.595145536761408    MA= 325.4969571502525   ADIST= 3.251328903410271
   PER= 4.18072            N= .235755311           ANGMOM= .026811166
   DAN= 2.05907            DDN= 2.96164            L= 273.9618276
   B= 2.7590972            MOID= .92500103         TP= 2008-Dec-11.3510696772
 
Asteroid physical parameters (km, seconds, rotational period in hours):
   GM= n.a.                RAD= 74.3505            ROTPER= 16.784
   H= 8.6                  G= .150                 B-V= .641
                           ALBEDO= .034            STYP= F
 
ASTEROID comments: 
1: soln ref.= JPL#106, OCC=0
2: source=ORB
*******************************************************************************
 
 
*******************************************************************************
Ephemeris / WWW_USER Mon Jun 22 09:00:01 2020 Pasadena, USA      / Horizons
*******************************************************************************
Target body name: 419 Aurelia (A896 RF)           {source: JPL#106}
Center body name: Solar System Barycenter (0)     {source: DE431}
Center-site name: BODY CENTER
*******************************************************************************
Start time      : A.D. 1969-Jun-28 00:00:00.0000 TDB
Stop  time      : A.D. 2071-May-04 00:00:00.0000 TDB
Step-size       : 7200 minutes
*******************************************************************************
Center geodetic : 0.00000000,0.00000000,0.0000000 {E-lon(deg),Lat(deg),Alt(km)}
Center cylindric: 0.00000000,0.00000000,0.0000000 {E-lon(deg),Dxy(km),Dz(km)}
Center radii    : (undefined)                                                  
Small perturbers: Yes                             {source: SB431-N16}
Output units    : AU-D
Output type     : GEOMETRIC cartesian states
Output format   : 2 (position and velocity)
Reference frame : Ecliptic of J2000.0
*******************************************************************************
Initial IAU76/J2000 heliocentric ecliptic osculating elements (au, days, deg.):
  EPOCH=  2454665.5 ! 2008-Jul-18.00 (TDB)         Residual RMS= .28879        
   EC= .25285031508011     QR= 1.938962170112545   TP= 2454811.8510696772      
   OM= 229.3430360926044   W=  44.68606100952064   IN= 3.925062460341294       
  Equivalent ICRF heliocentric equatorial cartesian coordinates (au, au/d):
   X=-1.677208388871504E+00  Y=-1.190919896285447E+00  Z=-5.476279485741564E-01
  VX= 9.552385868490618E-03 VY=-8.132903488792208E-03 VZ=-2.570723468053922E-03
Asteroid physical parameters (km, seconds, rotational period in hours):        
   GM= n.a.                RAD= 74.3505            ROTPER= 16.784              
   H= 8.6                  G= .150                 B-V= .641                   
                           ALBEDO= .034            STYP= F                     
*******************************************************************************
            JDTDB,            Calendar Date (TDB),        delta-T,                      X,                      Y,                      Z,                     VX,                     VY,                     VZ,
******************************************************************************************************************************************************************************************************************
$$SOE
2442500.500000000, A.D. 1975-Mar-29 00:00:00.0000,      46.185645, -1.212615344641967E+00, -1.621809583179907E+00,  7.295225377412405E-03,  1.164069032115130E-02, -6.498648995806503E-03,  9.043815358699042E-04,
2442505.500000000, A.D. 1975-Apr-03 00:00:00.0000,      46.185654, -1.153877563181584E+00, -1.653570442973192E+00,  1.181320938388276E-02,  1.185311375086218E-02, -6.204116284630463E-03,  9.026729518108791E-04,
2442510.500000000, A.D. 1975-Apr-08 00:00:00.0000,      46.185653, -1.094097733572510E+00, -1.683835147872569E+00,  1.632054860552376E-02,  1.205742140570499E-02, -5.900225910965898E-03,  9.001206526742645E-04,
2442515.500000000, A.D. 1975-Apr-13 00:00:00.0000,      46.185641, -1.033317754363073E+00, -1.712557523575327E+00,  2.081298144777593E-02,  1.225308610505828E-02, -5.587229684143908E-03,  8.967077409614218E-04,
2442520.500000000, A.D. 1975-Apr-18 00:00:00.0000,      46.185616, -9.715821471573621E-01, -1.739692748381174E+00,  2.528616663548506E-02,  1.243958631462939E-02, -5.265416921473782E-03,  8.924192726567744E-04,
2442525.500000000, A.D. 1975-Apr-23 00:00:00.0000,      46.185577, -9.089380206583180E-01, -1.765197541781592E+00,  2.973569343689127E-02,  1.261640925852870E-02, -4.935114820052730E-03,  8.872424389154820E-04,
2442530.500000000, A.D. 1975-Apr-28 00:00:00.0000,      46.185526, -8.454350188447888E-01, -1.789030354168014E+00,  3.415709277974668E-02,  1.278305414870241E-02, -4.596688528461144E-03,  8.811667407858152E-04,
2442535.500000000, A.D. 1975-May-03 00:00:00.0000,      46.185465, -7.811252527727534E-01, -1.811151556100564E+00,  3.854584921801065E-02,  1.293903550024891E-02, -4.250540895855096E-03,  8.741841542579228E-04,
2442540.500000000, A.D. 1975-May-08 00:00:00.0000,      46.185395, -7.160632156584884E-01, -1.831523625476760E+00,  4.289741369383077E-02,  1.308388649704287E-02, -3.897111880242901E-03,  8.662892828716595E-04,
2442545.500000000, A.D. 1975-May-13 00:00:00.0000,      46.185315, -6.503056810897719E-01, -1.850111330860929E+00,  4.720721702589046E-02,  1.321716236797410E-02, -3.536877602661116E-03,  8.574794952282647E-04,
2442550.500000000, A.D. 1975-May-18 00:00:00.0000,      46.185226, -5.839115844181275E-01, -1.866881909179930E+00,  5.147068404231071E-02,  1.333844373097054E-02, -3.170349038422361E-03,  8.477550448845352E-04,
2442555.500000000, A.D. 1975-May-23 00:00:00.0000,      46.185126, -5.169418876042362E-01, -1.881805235958503E+00,  5.568324826382813E-02,  1.344733986015897E-02, -2.798070341567109E-03,  8.371191701659500E-04,
2442560.500000000, A.D. 1975-May-28 00:00:00.0000,      46.185017, -4.494594280149565E-01, -1.894853986263490E+00,  5.984036703093487E-02,  1.354349183035593E-02, -2.420616804915812E-03,  8.255781715663542E-04,
2442565.500000000, A.D. 1975-Jun-02 00:00:00.0000,      46.184902, -3.815287519010580E-01, -1.906003784554923E+00,  6.393753695756775E-02,  1.362657549258867E-02, -2.038592464843606E-03,  8.131414646450144E-04,
2442570.500000000, A.D. 1975-Jun-07 00:00:00.0000,      46.184782, -3.132159335151586E-01, -1.915233341704198E+00,  6.797030958422363E-02,  1.369630423501682E-02, -1.652627366511464E-03,  7.998216066249035E-04,
2442575.500000000, A.D. 1975-Jun-12 00:00:00.0000,      46.184657, -2.445883810530179E-01, -1.922524577534876E+00,  7.193430709517756E-02,  1.375243148562917E-02, -1.263374511992412E-03,  7.856342952207332E-04,
2442580.500000000, A.D. 1975-Jun-17 00:00:00.0000,      46.184527, -1.757146308119464E-01, -1.927862727370907E+00,  7.582523795807582E-02,  1.379475291628282E-02, -8.715065205732416E-04,  7.705983386233190E-04,
2442585.500000000, A.D. 1975-Jun-22 00:00:00.0000,      46.184391, -1.066641311523070E-01, -1.931236431240836E+00,  7.963891234016741E-02,  1.382310831173220E-02, -4.777120374556898E-04,  7.547355961486932E-04,
2442590.500000000, A.D. 1975-Jun-27 00:00:00.0000,      46.184252, -3.750701801890258E-02, -1.932637804584239E+00,  8.337125715483898E-02,  1.383738307170021E-02, -8.269193350654828E-05,  7.380708898185901E-04,
2442595.500000000, A.D. 1975-Jul-02 00:00:00.0000,      46.184112,  3.168611607306877E-02, -1.932062489532468E+00,  8.701833059526928E-02,  1.383750931893304E-02,  3.128446565761364E-04,  7.206318878368975E-04,
2442600.500000000, A.D. 1975-Jul-07 00:00:00.0000,      46.183973,  1.008444575619924E-01, -1.929509686080700E+00,  9.057633601814086E-02,  1.382346659216468E-02,  7.081844073524547E-04,  7.024489614021012E-04,
2442605.500000000, A.D. 1975-Jul-12 00:00:00.0000,      46.183835,  1.698972097600877E-01, -1.924982162724536E+00,  9.404163504830768E-02,  1.379528210995585E-02,  1.102613934973873E-03,  6.835550165860429E-04,
2442610.500000000, A.D. 1975-Jul-17 00:00:00.0000,      46.183696,  2.387738310054685E-01, -1.918486246396483E+00,  9.741075978454117E-02,  1.375303059923931E-02,  1.495423936122685E-03,  6.639853032290199E-04,
2442615.500000000, A.D. 1975-Jul-22 00:00:00.0000,      46.183559,  3.074042708714860E-01, -1.910031791800659E+00,  1.006804239967733E-01,  1.369683369075961E-02,  1.885913281092754E-03,  6.437772030244687E-04,
2442620.500000000, A.D. 1975-Jul-27 00:00:00.0000,      46.183424,  3.757192022910436E-01, -1.899632130504261E+00,  1.038475332167119E-01,  1.362685889211834E-02,  2.273393009542295E-03,  6.229699992127527E-04,
2442625.500000000, A.D. 1975-Aug-01 00:00:00.0000,      46.183294,  4.436502475281706E-01, -1.887304000398240E+00,  1.069091936366909E-01,  1.354331815745260E-02,  2.657190178812876E-03,  6.016046306956646E-04,
2442630.500000000, A.D. 1975-Aug-06 00:00:00.0000,      46.183171,  5.111301960428152E-01, -1.873067456387024E+00,  1.098627197472056E-01,  1.344646607988349E-02,  3.036651515990187E-03,  5.797234340374001E-04,
2442635.500000000, A.D. 1975-Aug-11 00:00:00.0000,      46.183054,  5.780932124389019E-01, -1.856945763405565E+00,  1.127056406626339E-01,  1.333659773788559E-02,  3.411146827649159E-03,  5.573698774467998E-04,
